AEHF-4 (USA 288)        
1 43651U 18079A   26168.88344421 -.00000281  00000+0  00000+0 0  9991
2 43651   1.4326   4.0558 0060391 356.0354 156.5632  1.00272288 28305
BEIDOU-3 G1             
1 43683U 18085A   26168.92851512 -.00000116  00000+0  00000+0 0  9999
2 43683   2.8702  97.3473 0008043 349.7535 313.2915  1.00270303 28065
GSAT-29                 
1 43698U 18089A   26167.98088671  .00000000  00000+0  00000+0 0  9993
2 43698   0.0121   5.2223 0003261  64.7926 243.4163  1.00274142 27784
ES'HAIL 2               
1 43700U 18090A   26168.90192579  .00000138  00000+0  00000+0 0  9997
2 43700   0.0174  17.6316 0001656 106.4246 132.5644  1.00271041 27687
GEO-KOMPSAT-2A          
1 43823U 18100A   26168.92218843 -.00000349  00000+0  00000+0 0  9995
2 43823   0.0512 159.7610 0001813 287.7204 278.9346  1.00269516 27639
GSAT-11                 
1 43824U 18100B   26168.91144170 -.00000082  00000+0  00000+0 0  9990
2 43824   0.0318 244.1139 0007702 203.9494 220.2116  1.00271206 27480
GSAT-7A                 
1 43864U 18105A   26168.90927503  .00000021  00000+0  00000+0 0  9999
2 43864   0.0183  79.6280 0001965 344.0415 232.5789  1.00271157 27451
COSMOS 2533             
1 43867U 18107A   26168.69679124 -.00000043  00000+0  00000+0 0  9998
2 43867   0.0491  89.9947 0000945  42.6956  94.0812  1.00270501 27458
TJS-3                   
1 43874U 18110A   26168.80083983 -.00000223  00000+0  00000+0 0  9995
2 43874   2.5471  80.4839 0002166  82.2220 179.8966  1.00270373 27424
ZHONGXING-2D            
1 43920U 19001A   26168.92253509 -.00000342  00000+0  00000+0 0  9995
2 43920   0.0335 242.4975 0001413  92.7746  33.0271  1.00270965 54081
HELLAS-SAT 4 & SGS-1    
1 44034U 19007A   26167.92655931  .00000150  00000+0  00000+0 0  9998
2 44034   0.0755 127.9952 0005150  15.2732 134.5147  1.00265019 27367
GSAT-31                 
1 44035U 19007B   26168.90624168  .00000119  00000+0  00000+0 0  9991
2 44035   0.0632 258.1419 0001675 106.3180 275.7933  1.00274718 26977
NUSANTARA SATU          
1 44048U 19009A   26168.71181016 -.00000240  00000+0  00000+0 0  9992
2 44048   0.0417 134.3452 0004334 345.3314 188.5465  1.00270468 26770
ZHONGXING-6C            
1 44067U 19012A   26168.99393307 -.00000341  00000+0  00000+0 0  9997
2 44067   0.0761  73.9569 0014105 336.0352 344.4599  1.00273567 26747
WGS 10 (USA 291)        
1 44071U 19014A   26168.90875502  .00000042  00000+0  00000+0 0  9994
2 44071   0.0161  16.2936 0000414 271.5814   5.7433  1.00266729 26621
TIANLIAN 2-01           
1 44076U 19017A   26168.91204838 -.00000112  00000+0  00000+0 0  9990
2 44076   0.5426  83.1125 0000738  34.0705 194.3226  1.00270935 26650
ARABSAT-6A              
1 44186U 19021A   26167.76215661  .00000150  00000+0  00000+0 0  9996
2 44186   0.0505   5.5983 0001034 332.7934 231.4495  1.00261957 26157
BEIDOU-3 IGSO-1         
1 44204U 19023A   26168.63495080 -.00000222  00000+0  00000+0 0  9992
2 44204  58.6955  37.6444 0025497 225.8169 349.0348  1.00291188  7213
BEIDOU-2 G8             
1 44231U 19027A   26168.92548177 -.00000253  00000+0  00000+0 0  9998
2 44231   1.6603  74.4908 0010181 281.7678  27.6271  1.00270524 26086
YAMAL 601               
1 44307U 19031A   26168.90650169  .00000114  00000+0  00000+0 0  9995
2 44307   0.0242  69.8150 0002387  20.2637 191.4141  1.00271506 25939
AT&T T-16               
1 44333U 19034A   26168.59164146 -.00000120  00000+0  00000+0 0  9995
2 44333   0.0252  66.2499 0000771 211.2042 100.5032  1.00268538 25631
EUTELSAT 7C             
1 44334U 19034B   26168.89808899  .00000043  00000+0  00000+0 0  9992
2 44334   0.0731 175.3756 0003047 254.7388 166.3480  1.00270639  6840
BEIDOU-3 IGSO-2         
1 44337U 19035A   26165.62361995 -.00000071  00000+0  00000+0 0  9997
2 44337  55.2456 158.8849 0039904 216.4592 231.8306  1.00267330 25649
COSMOS 2539             
1 44457U 19048A   26168.68531434  .00000075  00000+0  00000+0 0  9993
2 44457   0.0381  88.9288 0000824   1.8028  73.8927  1.00270013 25236
EDRS-C                  
1 44475U 19049A   26168.92504844  .00000000  00000+0  00000+0 0  9994
2 44475   0.0119  33.9823 0000247  49.2603 298.4515  1.00267572 25216
INTELSAT 39 (IS-39)     
1 44476U 19049B   26168.90910169  .00000028  00000+0  00000+0 0  9994
2 44476   0.0182 352.6794 0000908 327.5619 335.1358  1.00270797 25136
AMOS-17                 
1 44479U 19050A   26167.91940256  .00000106  00000+0  00000+0 0  9996
2 44479   0.0148 340.4324 0001616 139.0917 133.6349  1.00272916 25180
AEHF-5 (USA 292)        
1 44481U 19051A   26168.88566646 -.00000263  00000+0  00000+0 0  9999
2 44481   1.4536 336.2837 0066308 359.9844 341.7689  1.00273501 25261
EUTELSAT 5 WEST B       
1 44624U 19067A   26168.89583565 -.00000047  00000+0  00000+0 0  9995
2 44624   0.0633 346.4597 0002954  98.0080 139.2048  1.00272151 24447
MEV-1                   
1 44625U 19067B   26167.92963140 -.00000149  00000+0  00000+0 0  9993
2 44625   0.8740 268.9828 0002794 179.8034 307.2103  1.00269616 61744
TJS-4                   
1 44637U 19070A   26167.63007487 -.00000170  00000+0  00000+0 0  9995
2 44637   0.0156  30.5389 0004446  10.1649 174.4757  1.00268284 24535
TIBA-1                  
1 44800U 19080A   26168.81248025  .00000150  00000+0  00000+0 0  9991
2 44800   0.0541  14.2445 0001851  83.4452 136.3386  1.00271121 24066
