OBJECT_NAME,OBJECT_ID,EPOCH,MEAN_MOTION,ECCENTRICITY,INCLINATION,RA_OF_ASC_NODE,ARG_OF_PERICENTER,MEAN_ANOMALY,EPHEMERIS_TYPE,CLASSIFICATION_TYPE,NORAD_CAT_ID,ELEMENT_SET_NO,REV_AT_EPOCH,BSTAR,MEAN_MOTION_DOT,MEAN_MOTION_DDOT
AEHF-4 (USA 288),2018-079A,2026-06-17T21:12:09.579744,1.00272288,.00603912,1.4326,4.0558,356.0354,156.5632,0,U,43651,999,2830,0,-.281E-5,0
BEIDOU-3 G1,2018-085A,2026-06-17T22:17:03.706368,1.00270303,.00080432,2.8702,97.3473,349.7535,313.2915,0,U,43683,999,2806,0,-.116E-5,0
GSAT-29,2018-089A,2026-06-16T23:32:28.611744,1.00274142,.0003261,0.0121,5.2223,64.7926,243.4163,0,U,43698,999,2778,0,0,0
ES'HAIL 2,2018-090A,2026-06-17T21:38:46.388256,1.00271041,.00016566,0.0174,17.6316,106.4246,132.5644,0,U,43700,999,2768,0,.138E-5,0
GEO-KOMPSAT-2A,2018-100A,2026-06-17T22:07:57.080352,1.00269516,.00018136,0.0512,159.7610,287.7204,278.9346,0,U,43823,999,2763,0,-.349E-5,0
GSAT-11,2018-100B,2026-06-17T21:52:28.562880,1.00271206,.00077028,0.0318,244.1139,203.9494,220.2116,0,U,43824,999,2748,0,-.82E-6,0
GSAT-7A,2018-105A,2026-06-17T21:49:21.362592,1.00271157,.00019656,0.0183,79.6280,344.0415,232.5789,0,U,43864,999,2745,0,.21E-6,0
COSMOS 2533,2018-107A,2026-06-17T16:43:22.763136,1.00270501,.00009457,0.0491,89.9947,42.6956,94.0812,0,U,43867,999,2745,0,-.43E-6,0
TJS-3,2018-110A,2026-06-17T19:13:12.561312,1.00270373,.0002166,2.5471,80.4839,82.2220,179.8966,0,U,43874,999,2742,0,-.223E-5,0
ZHONGXING-2D,2019-001A,2026-06-17T22:08:27.031776,1.00270965,.00014134,0.0335,242.4975,92.7746,33.0271,0,U,43920,999,5408,0,-.342E-5,0
HELLAS-SAT 4 & SGS-1,2019-007A,2026-06-16T22:14:14.724384,1.00265019,.00051508,0.0755,127.9952,15.2732,134.5147,0,U,44034,999,2736,0,.15E-5,0
GSAT-31,2019-007B,2026-06-17T21:44:59.281152,1.00274718,.00016754,0.0632,258.1419,106.3180,275.7933,0,U,44035,999,2697,0,.119E-5,0
NUSANTARA SATU,2019-009A,2026-06-17T17:05:00.397824,1.00270468,.0004334,0.0417,134.3452,345.3314,188.5465,0,U,44048,999,2677,0,-.24E-5,0
ZHONGXING-6C,2019-012A,2026-06-17T23:51:15.817248,1.00273567,.0014105,0.0761,73.9569,336.0352,344.4599,0,U,44067,999,2674,0,-.341E-5,0
WGS 10 (USA 291),2019-014A,2026-06-17T21:48:36.433728,1.00266729,.00004143,0.0161,16.2936,271.5814,5.7433,0,U,44071,999,2662,0,.42E-6,0
TIANLIAN 2-01,2019-017A,2026-06-17T21:53:20.980032,1.00270935,.00007389,0.5426,83.1125,34.0705,194.3226,0,U,44076,999,2665,0,-.112E-5,0
ARABSAT-6A,2019-021A,2026-06-16T18:17:30.331104,1.00261957,.00010348,0.0505,5.5983,332.7934,231.4495,0,U,44186,999,2615,0,.15E-5,0
BEIDOU-3 IGSO-1,2019-023A,2026-06-17T15:14:19.749120,1.00291188,.0025497,58.6955,37.6444,225.8169,349.0348,0,U,44204,999,721,0,-.222E-5,0
BEIDOU-2 G8,2019-027A,2026-06-17T22:12:41.624928,1.00270524,.00101811,1.6603,74.4908,281.7678,27.6271,0,U,44231,999,2608,0,-.253E-5,0
YAMAL 601,2019-031A,2026-06-17T21:45:21.746016,1.00271506,.00023876,0.0242,69.8150,20.2637,191.4141,0,U,44307,999,2593,0,.114E-5,0
AT&T T-16,2019-034A,2026-06-17T14:11:57.822144,1.00268538,.00007716,0.0252,66.2499,211.2042,100.5032,0,U,44333,999,2563,0,-.12E-5,0
EUTELSAT 7C,2019-034B,2026-06-17T21:33:14.888736,1.00270639,.00030479,0.0731,175.3756,254.7388,166.3480,0,U,44334,999,684,0,.43E-6,0
BEIDOU-3 IGSO-2,2019-035A,2026-06-14T14:58:00.763680,1.00267330,.0039904,55.2456,158.8849,216.4592,231.8306,0,U,44337,999,2564,0,-.71E-6,0
COSMOS 2539,2019-048A,2026-06-17T16:26:51.158976,1.00270013,.00008248,0.0381,88.9288,1.8028,73.8927,0,U,44457,999,2523,0,.75E-6,0
EDRS-C,2019-049A,2026-06-17T22:12:04.185216,1.00267572,.00002477,0.0119,33.9823,49.2603,298.4515,0,U,44475,999,2521,0,0,0
INTELSAT 39 (IS-39),2019-049B,2026-06-17T21:49:06.386016,1.00270797,.0000908,0.0182,352.6794,327.5619,335.1358,0,U,44476,999,2513,0,.28E-6,0
AMOS-17,2019-050A,2026-06-16T22:03:56.381184,1.00272916,.00016162,0.0148,340.4324,139.0917,133.6349,0,U,44479,999,2518,0,.106E-5,0
AEHF-5 (USA 292),2019-051A,2026-06-17T21:15:21.582144,1.00273501,.00663083,1.4536,336.2837,359.9844,341.7689,0,U,44481,999,2526,0,-.263E-5,0
EUTELSAT 5 WEST B,2019-067A,2026-06-17T21:30:00.200160,1.00272151,.00029549,0.0633,346.4597,98.0080,139.2048,0,U,44624,999,2444,0,-.47E-6,0
MEV-1,2019-067B,2026-06-16T22:18:40.152960,1.00269616,.00027946,0.8740,268.9828,179.8034,307.2103,0,U,44625,999,6174,0,-.149E-5,0
TJS-4,2019-070A,2026-06-16T15:07:18.468768,1.00268284,.0004446,0.0156,30.5389,10.1649,174.4757,0,U,44637,999,2453,0,-.17E-5,0
TIBA-1,2019-080A,2026-06-17T19:29:58.293600,1.00271121,.00018512,0.0541,14.2445,83.4452,136.3386,0,U,44800,999,2406,0,.15E-5,0
